$$SOE
2460147.500000000, A.D. 2023-Jul-22 00:00:00.0000, -3.309185790345931E+08, -3.168014322956724E+08, -6.589822308026339E+07,
2460154.500000000, A.D. 2023-Jul-29 00:00:00.0000, -3.234078967239713E+08, -3.239792135376312E+08, -6.716990202223869E+07,
2460161.500000000, A.D. 2023-Aug-05 00:00:00.0000, -3.157387624422377E+08, -3.309982161271806E+08, -6.840865642374586E+07,
2460168.500000000, A.D. 2023-Aug-12 00:00:00.0000, -3.079147893769953E+08, -3.378548463401200E+08, -6.961384691073826E+07,
2460175.500000000, A.D. 2023-Aug-19 00:00:00.0000, -2.999396834149147E+08, -3.445455948173913E+08, -7.078485166819920E+07,
2460182.500000000, A.D. 2023-Aug-26 00:00:00.0000, -2.918172408850043E+08, -3.510670391899920E+08, -7.192106692383762E+07,
2460189.500000000, A.D. 2023-Sep-02 00:00:00.0000, -2.835513462263978E+08, -3.574158467073888E+08, -7.302190742202659E+07,
2460196.500000000, A.D. 2023-Sep-09 00:00:00.0000, -2.751459695467798E+08, -3.635887769066014E+08, -7.408680689394847E+07,
2460203.500000000, A.D. 2023-Sep-16 00:00:00.0000, -2.666051639059210E+08, -3.695826843758633E+08, -7.511521854331493E+07,
2460210.500000000, A.D. 2023-Sep-23 00:00:00.0000, -2.579330619109657E+08, -3.753945213220236E+08, -7.610661556158088E+07,
2460217.500000000, A.D. 2023-Sep-30 00:00:00.0000, -2.491338719661658E+08, -3.810213387467700E+08, -7.706049154327174E+07,
2460224.500000000, A.D. 2023-Oct-07 00:00:00.0000, -2.402118765335982E+08, -3.864602867701435E+08, -7.797636062885664E+07,
2460231.500000000, A.D. 2023-Oct-14 00:00:00.0000, -2.311714313677585E+08, -3.917086174111555E+08, -7.885375774052298E+07,
2460238.500000000, A.D. 2023-Oct-21 00:00:00.0000, -2.220169624994799E+08, -3.967636882206128E+08, -7.969223907560262E+07,
2460245.500000000, A.D. 2023-Oct-28 00:00:00.0000, -2.127529623983007E+08, -4.016229645033023E+08, -8.049138254170057E+07,
2460252.500000000, A.D. 2023-Nov-04 00:00:00.0000, -2.033839865677262E+08, -4.062840208964229E+08, -8.125078808091182E+07,
2460259.500000000, A.D. 2023-Nov-11 00:00:00.0000, -1.939146503998776E+08, -4.107445429006394E+08, -8.197007794745001E+07,
2460266.500000000, A.D. 2023-Nov-18 00:00:00.0000, -1.843496260739121E+08, -4.150023284250610E+08, -8.264889696321502E+07,
2460273.500000000, A.D. 2023-Nov-25 00:00:00.0000, -1.746936394294204E+08, -4.190552893213223E+08, -8.328691275554004E+07,
2460280.500000000, A.D. 2023-Dec-02 00:00:00.0000, -1.649514667911299E+08, -4.229014529163032E+08, -8.388381598026469E+07,
2460287.500000000, A.D. 2023-Dec-09 00:00:00.0000, -1.551279316720409E+08, -4.265389636009315E+08, -8.443932054183638E+07,
2460294.500000000, A.D. 2023-Dec-16 00:00:00.0000, -1.452279010725547E+08, -4.299660844610547E+08, -8.495316383557218E+07,
2460301.500000000, A.D. 2023-Dec-23 00:00:00.0000, -1.352562810322794E+08, -4.331811982615292E+08, -8.542510698769605E+07,
2460308.500000000, A.D. 2023-Dec-30 00:00:00.0000, -1.252180127797571E+08, -4.361828067326471E+08, -8.585493488428643E+07,
2460315.500000000, A.D. 2024-Jan-06 00:00:00.0000, -1.151180712569837E+08, -4.389695305178530E+08, -8.624245601932338E+07,
2460322.500000000, A.D. 2024-Jan-13 00:00:00.0000, -1.049614628501503E+08, -4.415401115892630E+08, -8.658750260083938E+07,
2460329.500000000, A.D. 2024-Jan-20 00:00:00.0000, -9.475322110815607E+07, -4.438934150473882E+08, -8.688993077606437E+07,
2460336.500000000, A.D. 2024-Jan-27 00:00:00.0000, -8.449840248337877E+07, -4.460284296535038E+08, -8.714962073678282E+07,
2460343.500000000, A.D. 2024-Feb-03 00:00:00.0000, -7.420208252888028E+07, -4.479442680433189E+08, -8.736647674348181E+07,
2460350.500000000, A.D. 2024-Feb-10 00:00:00.0000, -6.386935228048573E+07, -4.496401669126973E+08, -8.754042711763895E+07,
2460357.500000000, A.D. 2024-Feb-17 00:00:00.0000, -5.350531469054641E+07, -4.511154871666420E+08, -8.767142421404013E+07,
2460364.500000000, A.D. 2024-Feb-24 00:00:00.0000, -4.311508108218934E+07, -4.523697140157218E+08, -8.775944437487411E+07,
2460371.500000000, A.D. 2024-Mar-02 00:00:00.0000, -3.270376759855413E+07, -4.534024570520662E+08, -8.780448787076452E+07,
2460378.500000000, A.D. 2024-Mar-09 00:00:00.0000, -2.227649151158378E+07, -4.542134503686954E+08, -8.780657884687978E+07,
2460385.500000000, A.D. 2024-Mar-16 00:00:00.0000, -1.183836699863127E+07, -4.548025525272902E+08, -8.776576529505482E+07,
2460392.500000000, A.D. 2024-Mar-23 00:00:00.0000, -1.394500494822175E+06, -4.551697452685798E+08, -8.768211895287830E+07,
2460399.500000000, A.D. 2024-Mar-30 00:00:00.0000, 9.050012132563518E+06, -4.553151309948657E+08, -8.755573492723784E+07,
2460406.500000000, A.D. 2024-Apr-06 00:00:00.0000, 1.949008683890550E+07, -4.552389323940803E+08, -8.738673134155679E+07,
2460413.500000000, A.D. 2024-Apr-13 00:00:00.0000, 2.992065463315876E+07, -4.549414933714256E+08, -8.717524926471579E+07,
2460420.500000000, A.D. 2024-Apr-20 00:00:00.0000, 4.033666582831932E+07, -4.544232786150540E+08, -8.692145261623943E+07,
2460427.500000000, A.D. 2024-Apr-27 00:00:00.0000, 5.073309379004708E+07, -4.536848723597711E+08, -8.662552795489433E+07,
2460434.500000000, A.D. 2024-May-04 00:00:00.0000, 6.110493826736937E+07, -4.527269770543776E+08, -8.628768421655875E+07,
2460441.500000000, A.D. 2024-May-11 00:00:00.0000, 7.144722854009356E+07, -4.515504120366409E+08, -8.590815243185535E+07,
2460448.500000000, A.D. 2024-May-18 00:00:00.0000, 8.175502646144883E+07, -4.501561121964145E+08, -8.548718542959937E+07,
2460455.500000000, A.D. 2024-May-25 00:00:00.0000, 9.202342941764662E+07, -4.485451266362236E+08, -8.502505752925411E+07,
2460462.500000000, A.D. 2024-Jun-01 00:00:00.0000, 1.022475732616407E+08, -4.467186173894626E+08, -8.452206423307389E+07,
2460469.500000000, A.D. 2024-Jun-08 00:00:00.0000, 1.124226354649810E+08, -4.446778582226799E+08, -8.397852194306231E+07,
2460476.500000000, A.D. 2024-Jun-15 00:00:00.0000, 1.225438388845176E+08, -4.424242329809240E+08, -8.339476769550374E+07,
2460483.500000000, A.D. 2024-Jun-22 00:00:00.0000, 1.326064551355409E+08, -4.399592323048611E+08, -8.277115872528923E+07,
2460490.500000000, A.D. 2024-Jun-29 00:00:00.0000, 1.426058054463977E+08, -4.372844505431269E+08, -8.210807181435141E+07,
2460497.500000000, A.D. 2024-Jul-06 00:00:00.0000, 1.525372616372033E+08, -4.344015853329394E+08, -8.140590286883134E+07,
2460504.500000000, A.D. 2024-Jul-13 00:00:00.0000, 1.623962491704610E+08, -4.313124370280041E+08, -8.066506667343897E+07,
2460511.500000000, A.D. 2024-Jul-20 00:00:00.0000, 1.721782502864603E+08, -4.280189068289267E+08, -7.988599654763347E+07,
2460518.500000000, A.D. 2024-Jul-27 00:00:00.0000, 1.818788065660250E+08, -4.245229945791888E+08, -7.906914392250687E+07,
2460525.500000000, A.D. 2024-Aug-03 00:00:00.0000, 1.914935211924782E+08, -4.208267966051044E+08, -7.821497789482841E+07,
2460532.500000000, A.D. 2024-Aug-10 00:00:00.0000, 2.010180610777645E+08, -4.169325036078079E+08, -7.732398477479640E+07,
2460539.500000000, A.D. 2024-Aug-17 00:00:00.0000, 2.104481588992548E+08, -4.128423985891352E+08, -7.639666763114810E+07,
2460546.500000000, A.D. 2024-Aug-24 00:00:00.0000, 2.197796150743736E+08, -4.085588548370077E+08, -7.543354583912057E+07,
2460553.500000000, A.D. 2024-Aug-31 00:00:00.0000, 2.290082997884224E+08, -4.040843340351158E+08, -7.443515464806667E+07,
2460560.500000000, A.D. 2024-Sep-07 00:00:00.0000, 2.381301554413661E+08, -3.994213843744097E+08, -7.340204479320212E+07,
2460567.500000000, A.D. 2024-Sep-14 00:00:00.0000, 2.471411995990901E+08, -3.945726376751841E+08, -7.233478207919607E+07,
2460574.500000000, A.D. 2024-Sep-21 00:00:00.0000, 2.560375264198905E+08, -3.895408051117561E+08, -7.123394671683657E+07,
2460581.500000000, A.D. 2024-Sep-28 00:00:00.0000, 2.648153060678374E+08, -3.843286747704673E+08, -7.010013263248424E+07,
2460588.500000000, A.D. 2024-Oct-05 00:00:00.0000, 2.734707857828086E+08, -3.789391110417331E+08, -6.893394708740766E+07,
2460595.500000000, A.D. 2024-Oct-12 00:00:00.0000, 2.820002922475616E+08, -3.733750528696691E+08, -6.773601033122060E+07,
2460602.500000000, A.D. 2024-Oct-19 00:00:00.0000, 2.904002335014132E+08, -3.676395111342126E+08, -6.650695515167533E+07,
2460609.500000000, A.D. 2024-Oct-26 00:00:00.0000, 2.986671003680141E+08, -3.617355659705094E+08, -6.524742638376084E+07,
2460616.500000000, A.D. 2024-Nov-02 00:00:00.0000, 3.067974676542819E+08, -3.556663641763436E+08, -6.395808041405016E+07,
2460623.500000000, A.D. 2024-Nov-09 00:00:00.0000, 3.147879952172124E+08, -3.494351166884840E+08, -6.263958468762265E+07,
2460630.500000000, A.D. 2024-Nov-16 00:00:00.0000, 3.226354289254395E+08, -3.430450961288877E+08, -6.129261722021659E+07,
2460637.500000000, A.D. 2024-Nov-23 00:00:00.0000, 3.303366015643762E+08, -3.364996344720902E+08, -5.991786612455256E+07,
2460644.500000000, A.D. 2024-Nov-30 00:00:00.0000, 3.378884338959643E+08, -3.298021208785409E+08, -5.851602917419422E+07,
2460651.500000000, A.D. 2024-Dec-07 00:00:00.0000, 3.452879362957709E+08, -3.229559992765170E+08, -5.708781340991746E+07,
2460658.500000000, A.D. 2024-Dec-14 00:00:00.0000, 3.525322102818343E+08, -3.159647644732380E+08, -5.563393462617521E+07,
2460665.500000000, A.D. 2024-Dec-21 00:00:00.0000, 3.596184476180492E+08, -3.088319580404007E+08, -5.415511662679908E+07,
2460672.500000000, A.D. 2024-Dec-28 00:00:00.0000, 3.665439289644960E+08, -3.015611669437082E+08, -5.265209067334402E+07,
2460679.500000000, A.D. 2025-Jan-04 00:00:00.0000, 3.733060246728632E+08, -2.941560225412376E+08, -5.112559517007445E+07,
2460686.500000000, A.D. 2025-Jan-11 00:00:00.0000, 3.799021959078389E+08, -2.866201982925909E+08, -4.957637528301060E+07,
2460693.500000000, A.D. 2025-Jan-18 00:00:00.0000, 3.863299951796750E+08, -2.789574070997413E+08, -4.800518248411959E+07,
2460700.500000000, A.D. 2025-Jan-25 00:00:00.0000, 3.925870665334098E+08, -2.711713987560141E+08, -4.641277408182345E+07,
2460707.500000000, A.D. 2025-Feb-01 00:00:00.0000, 3.986711455863116E+08, -2.632659575350921E+08, -4.479991275771068E+07,
$$EOE